GLOBALSTAR M001         
1 25162U 98008A   25059.40418547 -.00000033  00000+0  48544-3 0  9999
2 25162  52.0032 289.8493 0002155  41.6673 129.4461 12.38208179230231
GLOBALSTAR M004         
1 25163U 98008B   25059.39568441 -.00000086  00000+0  97931-4 0  9990
2 25163  52.0021  26.0457 0003387  51.7445 115.3279 12.63388762247939
GLOBALSTAR M002         
1 25164U 98008C   25059.47475437 -.00000063  00000+0  26011-3 0  9997
2 25164  52.0003 152.7820 0000596 304.4015  55.6749 11.61508245171437
GLOBALSTAR M003         
1 25165U 98008D   25059.61924581 -.00000015  00000+0  79806-3 0  9990
2 25165  51.9989 109.2050 0008287  76.9389  88.0972 12.12073227220056
GLOBALSTAR M014         
1 25306U 98023A   25059.48245792 -.00000059  00000+0  34037-3 0  9994
2 25306  51.9833  78.2718 0001246 153.9511 358.6730 11.65478480178493
GLOBALSTAR M006         
1 25307U 98023B   25059.57801573 -.00000049  00000+0  54367-3 0  9997
2 25307  51.9928 126.4455 0003044 260.2473 248.9037 11.58172514204245
GLOBALSTAR M015         
1 25308U 98023C   25059.45525943 -.00000076  00000+0 -55164-4 0  9997
2 25308  51.9790 220.2387 0011896 239.5099 133.8800 11.48858724181581
GLOBALSTAR M008         
1 25309U 98023D   25059.56236969 -.00000059  00000+0  29020-3 0  9998
2 25309  51.9962 152.9852 0001889 309.3640 151.9282 12.36063327224410
